#dP2023  9 23  6  0  0.00000000      96 __u+U ITR00 EXT  IAC
## 2280 540000.00000000   900.00000000 60210 0.2500000000000
+  120   C06C07C08C09C10C11C12C13C14C16C19C20C21C22C23C24C25
+        C26C27C28C29C30C32C33C34C35C36C37C38C39C40C41C42C43
+        C44C45C46E02E03E04E05E07E08E09E10E11E12E13E14E15E18
+        E19E21E24E25E26E27E30E31E33E34E36G01G02G03G04G05G06
+        G07G08G09G10G11G12G13G14G15G16G17G18G19G20G21G22G23
+        G24G25G26G27G28G29G30G31G32J02J03J04R01R02R03R04R05
+        R07R08R09R11R12R13R14R15R16R17R18R19R20R21R22R24R25
+        R26  0  0  0  0  0  0  0  0  0  0  0  0  0  0  0  0
++         9  8 10 12  8  9  8 10  8  9  9  8 10  9  9  8  8
++         7  8 10  8  7  8  8  8  9  7  9 10 11  8  7 10  8
++         9  8  9  8  7  8  7  7  7  7  8  8  7  8  8  7  7
++         8  7  8  8  8  7  8  7  7  7  8  7  8  7  7  8  8
++         9  6  8  8  8  7  8  7  8  8  7  9  8  6  8  7  8
++         8  7  7  7  8  7  8  8  8  8  9  9  8  9  7  7  8
++        10  9  9  8  7  9  7  8  7  8  8  8  8  9  8 10  8
++         9  0  0  0  0  0  0  0  0  0  0  0  0  0  0  0  0
%c M  cc GPS ccc cccc cccc cccc cccc ccccc ccccc ccccc ccccc
%c cc cc ccc ccc cccc cccc cccc cccc ccccc ccccc ccccc ccccc
%f  0.0000000  0.000000000  0.00000000000  0.000000000000000
%f  0.0000000  0.000000000  0.00000000000  0.000000000000000
%i    0    0    0    0      0      0      0      0         0
%i    0    0    0    0      0      0      0      0         0
/* IAC                                ULTRA-RAPID PREDICTION
/* S/V CLOCKS ARE ALIGNED TO GNSS TIME                      
/* G:C1WC2W R:C1PC2P E:C1XC5X C:C2IC6I J:C1CC2S             
/* PCV:IGS20_2280 OL/AL:FES2004  NONE     YN ORB:CoN CLK:CoN
*  2023 09 23 19 30  0.00000000
PC06   -382.901036  33370.304700 -25596.478286     21.298549
PC07 -15465.405775  27438.639988  28040.675449    -50.735910
PC08 -15517.039268  39104.715497  -4255.248153    331.280854
PC09   5009.846682  36413.856474 -19708.499958    128.997712
PC10  -6223.092936  28187.896818  30959.275809   -188.169674
PC11 -18205.563559 -20758.494856  -3871.304140    167.901955
PC12  -2825.357233 -19980.949855 -19225.914658    925.889369
PC13 -10463.473684  39733.975737  -9981.852832    356.681664
PC14 -13493.492160 -11104.628263  21749.930362    459.714225
PC16  -4337.652019  30082.652911 -28841.147276    -93.686626
PC19  21649.280460   4824.952206 -16931.370823   -970.523365
PC20   5180.120416  14789.879963 -23089.577770    259.984861
PC21  15949.766114 -16638.798993  15751.431929   -970.705453
PC22  26609.996443  -8416.994579   -706.014479   -295.092612
PC23 -16889.729870   7771.168711 -20804.651451   -863.244277
PC24  -1277.410679 -26383.133205  -8968.731661    423.183939
PC25 -13464.491418 -11953.265019 -21323.091728    217.723674
PC26   9952.951114 -24924.848701   7563.151068   -181.891397
PC27  -5676.673793  15791.079657  22278.524290    203.500897
PC28 -19197.302421   1658.895560  20188.424603    152.811853
PC29  23152.813485  14796.219906  -4896.589601    178.504810
PC30  11842.014004  21673.497701  12972.216804     -5.365898
PC32 -15909.557562  16742.093547 -15652.429400   -528.240664
PC33 -21583.207394  -4807.190737  17010.330393   -964.976585
PC34 -13030.709300 -21687.821297 -11798.065536    265.987634
PC35  19192.457914  -2387.398356 -20116.342227    540.192872
PC36  12811.235300  13143.055132  21048.964079   -212.017308
PC37 -10960.429794  24295.750294  -8299.003492   -834.663980
PC38 -19020.749398  37506.263183   4211.547154    106.704548
PC39  -7710.315976  26434.276607 -31824.458308     -4.913068
PC40 -21758.890458  20776.489325  29454.057189    -37.571791
PC41 -26686.157751   8023.728450   1481.429498   -876.485697
PC42  -3508.912297 -15404.405841  23038.006000   -539.422600
PC43 -22926.366591 -15404.672441   4025.217902     41.025423
PC44   5342.621866 -16008.305638 -22239.734299    240.527815
PC45  16768.083215  -8342.288666  20682.305308    -28.757776
PC46   2028.038850  25962.667543  10086.107841    -86.533122
PE02  -3852.825502  22502.665386  18852.252308     64.996849
PE03   7314.719529  17968.510237 -22367.694507    -58.737832
PE04 -24969.025454 -12902.756032   9288.159585   -218.713562
PE05 -14624.758339  12586.535243 -22449.790934     21.100139
PE07  28183.958764    456.624341   9048.442340    -77.011272
PE08  24713.499351  13058.747653  -9761.768067   -150.816478
PE09 -28200.512710   -571.524213  -8960.594940   -166.886739
PE10 -17411.223647 -11070.150616  21210.052018   -565.953965
PE11 -16335.676527    859.118229  24657.868796   2981.048652
PE12 -15774.616860 -20191.830643  14820.202196   -709.275341
PE13  16440.841031    -22.786004 -24612.898435    -19.707883
PE14   1009.320909 -19347.881195 -22240.617968    348.853098
PE15  15632.141687  20535.993475 -14495.384074    -55.609158
PE18  17382.510036  17868.198758  13351.114657    565.095511
PE19  -4422.489758 -17743.723034  23277.727926  -1569.648079
PE21  18827.454176 -22606.814591  -3247.364996   -554.341130
PE24 -23651.098952   8960.645078 -15403.782026   -337.771006
PE25 -19029.698797  22489.137656   2917.392044     -2.239508
PE26   7326.027436 -20858.037431 -19674.661571    231.128425
PE27  23662.864810  -9555.639731  14998.712294   -157.336370
PE30  14199.537207   9415.318062  24201.634786   -523.980363
PE31 -14510.550869  -8952.062947 -24183.846689     -5.805236
PE33  -5276.254506 -28757.884740  -4560.849825     -0.243803
PE34   5751.381652  28777.661634   3937.872238    -68.632918
PE36  -7619.634345  20270.557167  20181.611468   -120.335512
PG01 -14657.043938    382.058033  21829.063792    164.843423
PG02 -16930.222275  -6153.456202  20079.726903   -550.452814
PG03 -21309.453576   9839.856247  12176.304165   -118.935319
PG04 -24167.058968    780.701482 -11122.635404    164.602014
PG05  16034.502959   3863.121624 -21022.790580   -143.852868
PG06   5365.376144  25888.464954   2020.352914    544.749983
PG07  -7971.578756  17843.848698 -17290.851020     59.162446
PG08 -26189.861186  -5535.874642    801.090727   -143.730476
PG09 -17976.331938   8524.681115 -17709.920004    -51.682018
PG10   6895.938227 -20972.399549  14703.706685    -54.569593
PG11  12242.148949  20975.056974 -10798.291714   -382.911701
PG12  21462.753295  -5635.971999  14269.743528   -428.111594
PG13  22066.475326  13782.156269  -6079.026190    576.025891
PG14 -10344.216177  21412.392875  11677.395713    193.698706
PG15  26550.736295   2245.455730   1065.179446     80.377076
PG16 -12155.989690  -9642.620942 -21899.332889   -449.799190
PG17  -1760.616158  15273.989983  22083.868656    723.837594
PG18   6610.612693 -19630.972875 -16514.544362   -426.929890
PG19   7882.655180  16828.266618  18905.784886    375.524379
PG20   8143.916800  14330.513966 -20821.506383    410.366861
PG21 -17351.908900  -9840.194490  18479.200005    148.297911
PG22  -4632.763247  19872.334535  17607.938205    116.114193
PG23  16347.143974 -20572.598050   3150.968971     72.537345
PG24  17038.629535   4043.523566  19697.104413   -327.632465
PG25  19786.183568 -17123.689091   3292.832866    469.282091
PG26  -4053.242459 -17531.114331 -19552.284577    227.010038
PG27 -20796.923458 -13118.346651 -10813.070129    -44.279820
PG28  -5070.885563 -25767.109869   3957.797338    -14.080057
PG29  18303.171850  -6666.311040 -18149.080567   -609.566808
PG30  -1108.024435  24413.771227  -9952.149138   -485.107852
PG31 -10328.407548 -23476.846280  -6174.175734   -223.773005
PG32  -3785.894105 -16115.168739  20990.696212   -562.517149
PJ02 -29606.092907  30106.573396   5261.225602     -4.493806
PJ03 -25825.506772  23216.697779  29006.047672     -3.386714
PJ04 -33269.343980  22921.012194  -7128.558579     70.742736
PR01   4527.816431 -11559.642827  22278.558095     66.264309
PR02 -14520.475415  -7359.997199  19701.163444    -22.400680
PR03 -24904.932278    878.255406   5637.364482     85.773018
PR04 -21404.393906   8149.583144 -11227.505245    204.012014
PR05  -6414.880600  11163.613112 -22020.770027    119.500544
PR07  25001.509263  -1307.634635  -4701.637846     65.302882
PR08  21152.417041  -8460.128298  11488.528514    -72.639417
PR09   4782.829865  15391.540575  19763.865391    143.878218
PR11  13364.029882 -17247.519565  13240.993322   -172.998541
PR12   6560.874814 -23995.352883  -5583.314974     31.600514
PR13  -3098.281003 -17102.175245 -18679.071994    -39.514120
PR14 -12287.369345   1812.567622 -22260.926855     25.301376
PR15 -13352.242915  18100.311229 -12002.857266     85.947218
PR16  -6557.953215  24043.011153   5369.464414     18.971025
PR17 -16909.845435  -9512.327776  16541.119765     19.700486
PR18  -9067.858112   5354.670308  23250.110903    103.404056
PR19   1772.416335  16985.992926  18954.316744   -248.348403
PR20  14552.778057  20922.391704    592.675004   -100.546621
PR21  16598.970869   8956.009395 -17190.885189    -40.264320
PR22   8890.874336  -6241.147337 -23052.143073     85.494010
PR24 -15567.917313 -20189.822089     69.641429    -25.529051
PR25  16687.929501  10204.623307 -16382.142924     31.497439
PR26  21421.753004  -8421.343645  11028.769670    -22.941698
EOF
